SIRION PATHFINDER-2     
1 43759U 18099B   26176.10979164  .00005115  00000+0  28033-3 0  9994
2 43759  97.4252 224.9788 0007038 271.1820  88.8606 15.14612741413824
CORVUS BC4              
1 43767U 18099K   26176.06096676  .00004825  00000+0  28022-3 0  9991
2 43767  97.4067 218.8103 0007414 345.1206  14.9806 15.12550622413591
M2 PATHFINDER           
1 45727U 20037E   26175.09593832  .00001743  00000+0  12825-3 0  9992
2 45727  97.8139   6.4049 0012595 126.1910 234.0482 15.04695866326531
NETSAT-4                
1 46504U 20068U   26175.96677677  .00019556  00000+0  42916-3 0  9991
2 46504  97.8605 184.8333 0003192 296.5984  63.4935 15.44098756316979
NETSAT-3                
1 46505U 20068V   26175.97899678  .00019826  00000+0  45256-3 0  9990
2 46505  97.8656 183.0532 0003210 325.8929  34.2111 15.42921449316888
NETSAT-1                
1 46506U 20068W   26175.95944905  .00013134  00000+0  39155-3 0  9990
2 46506  97.8744 177.2712 0004088   7.3479 352.7822 15.34802554316498
NETSAT-2                
1 46507U 20068X   26175.99592441  .00024801  00000+0  50419-3 0  9998
2 46507  97.8619 184.7880 0002263 358.7452   1.3790 15.46304721316943
GREENCUBE (IO-117)      
1 53109U 22080E   26174.72102765 -.00000003  00000+0  00000+0 0  9992
2 53109  70.1445 295.9726 0008926 288.1418  71.8270  6.42583215 92482
SITRO-AIS 5 (KATYS)     
1 57176U 23091L   26176.18224919  .00015251  00000+0  53223-3 0  9990
2 57176  97.5062 240.1578 0012541  78.7378 281.5270 15.29623738165561
SITRO-AIS 6 (CHIRKIN)   
1 57192U 23091AC  26176.17970572  .00012682  00000+0  49347-3 0  9997
2 57192  97.5070 239.2318 0012938  81.8224 278.4481 15.26073557165502
SITRO-AIS 8 (ANOKHIN)   
1 57193U 23091AD  26176.18522575  .00016456  00000+0  52810-3 0  9997
2 57193  97.5059 241.7822 0011495  75.1412 285.1102 15.32331964165679
SITRO-AIS 7 (FARTUSHNIY)
1 57194U 23091AE  26176.18449543  .00012795  00000+0  50258-3 0  9997
2 57194  97.5067 239.0575 0012814  82.6993 277.5701 15.25758337165496
SITRO-AIS 10 (BURDAEV)  
1 57199U 23091AK  26176.18293992  .00024665  00000+0  64149-3 0  9990
2 57199  97.5083 246.9172 0006899  55.6453 304.5443 15.38889998165997
SITRO-AIS 9 (SHCHUKIN)  
1 57201U 23091AM  26176.14686682  .00023717  00000+0  62710-3 0  9991
2 57201  97.5082 246.6038 0007161  56.0780 304.1145 15.38388238165973
SITRO-AIS 12 (SMIRENNIY)
1 57204U 23091AQ  26176.13597076  .00023576  00000+0  61756-3 0  9993
2 57204  97.5094 247.0648 0006656  50.9906 309.1931 15.38682104165991
SITRO-AIS 11 (SHEFFER)  
1 57208U 23091AU  26176.14718006  .00024813  00000+0  64074-3 0  9997
2 57208  97.5092 247.3281 0006548  50.6344 309.5480 15.39110802166011
SITRO-AIS 25            
1 59066U 24039R   26176.21495630  .00002300  00000+0  18150-3 0  9998
2 59066  95.3910 240.6092 0142657 300.3902  58.3286 14.93549310125920
SITRO-AIS 26            
1 59067U 24039S   26176.21742655  .00002080  00000+0  16521-3 0  9996
2 59067  95.3910 240.5068 0143026 300.9809  57.7430 14.93343543125919
SITRO-AIS 27            
1 59068U 24039T   26176.18542375  .00002927  00000+0  22926-3 0  9996
2 59068  95.3910 240.7601 0142026 299.6401  59.0742 14.93763127125933
SITRO-AIS 28            
1 59071U 24039U   26176.22966817  .00002204  00000+0  17323-3 0  9999
2 59071  95.3911 240.8384 0141985 299.3285  59.3817 14.93796429125945
GRBBETA                 
1 60237U 24128C   26176.18412963  .00003299  00000+0  23181-3 0  9991
2 60237  61.9880 188.2076 0039614 136.3498 224.0740 15.06681375107471
OOV-CUBE (TUBSAT-30)    
1 60240U 24128F   26176.17316428  .00001609  00000+0  13303-3 0  9991
2 60240  61.9924 197.7253 0043642 135.5486 224.9121 15.02799692107313
ROBUSTA-3A (MEDITERRAN*)
1 60243U 24128J   26175.14631881  .00003769  00000+0  22904-3 0  9999
2 60243  61.9847 183.6324 0040402 129.5028 230.9651 15.11729530107475
LASARSAT                
1 62391U 24247Q   26176.17916159  .00036208  00000+0  70920-3 0  9990
2 62391  44.9731 217.2905 0007234  19.5501 340.5665 15.46799498 84557
CROCUBE                 
1 62394U 24247T   26174.16751798  .00028182  00000+0  52044-3 0  9995
2 62394  44.9701 225.8355 0007373  11.2148 348.8906 15.48608154 84279
FORESAIL-1 PRIME        
1 66778U 25276DS  26176.16648581  .00005305  00000+0  25842-3 0  9993
2 66778  97.4202 249.2913 0003927  87.1697 272.9986 15.18766994 31619
KNACKSAT-2              
1 67683U 98067XZ  26174.62737886  .00038628  00000+0  46309-3 0  9998
2 67683  51.6285 262.0701 0008762 244.0918 115.9173 15.60494137 21288
